<?xml version="1.0" encoding="UTF-8"?>
<ndm xmlns:xsi="http://www.w3.org/2001/XMLSchema-instance" xsi:noNamespaceSchemaLocation="https://sanaregistry.org/r/ndmxml_unqualified/ndmxml-2.0.0-master-2.0.xsd">
<omm id="CCSDS_OMM_VERS" version="2.0">
<header><CREATION_DATE/><ORIGINATOR/></header><body><segment><metadata><OBJECT_NAME>ONEWEB-0527</OBJECT_NAME><OBJECT_ID>2022-166A</OBJECT_ID><CENTER_NAME>EARTH</CENTER_NAME><REF_FRAME>TEME</REF_FRAME><TIME_SYSTEM>UTC</TIME_SYSTEM><MEAN_ELEMENT_THEORY>SGP4</MEAN_ELEMENT_THEORY></metadata><data><meanElements><EPOCH>2025-10-19T23:40:02.250624</EPOCH><MEAN_MOTION>13.21888339</MEAN_MOTION><ECCENTRICITY>.00019365</ECCENTRICITY><INCLINATION>87.9165</INCLINATION><RA_OF_ASC_NODE>291.9262</RA_OF_ASC_NODE><ARG_OF_PERICENTER>91.5175</ARG_OF_PERICENTER><MEAN_ANOMALY>268.6181</MEAN_ANOMALY></meanElements><tleParameters><EPHEMERIS_TYPE>0</EPHEMERIS_TYPE><CLASSIFICATION_TYPE>U</CLASSIFICATION_TYPE><NORAD_CAT_ID>54642</NORAD_CAT_ID><ELEMENT_SET_NO>999</ELEMENT_SET_NO><REV_AT_EPOCH>13980</REV_AT_EPOCH><BSTAR>.15659593E-3</BSTAR><MEAN_MOTION_DOT>.78E-6</MEAN_MOTION_DOT><MEAN_MOTION_DDOT>0</MEAN_MOTION_DDOT></tleParameters></data></segment></body></omm>
<omm id="CCSDS_OMM_VERS" version="2.0">
<header><CREATION_DATE/><ORIGINATOR/></header><body><segment><metadata><OBJECT_NAME>ONEWEB-0528</OBJECT_NAME><OBJECT_ID>2022-166B</OBJECT_ID><CENTER_NAME>EARTH</CENTER_NAME><REF_FRAME>TEME</REF_FRAME><TIME_SYSTEM>UTC</TIME_SYSTEM><MEAN_ELEMENT_THEORY>SGP4</MEAN_ELEMENT_THEORY></metadata><data><meanElements><EPOCH>2025-10-19T23:49:27.479424</EPOCH><MEAN_MOTION>13.21861300</MEAN_MOTION><ECCENTRICITY>.00019144</ECCENTRICITY><INCLINATION>87.9168</INCLINATION><RA_OF_ASC_NODE>291.9284</RA_OF_ASC_NODE><ARG_OF_PERICENTER>92.4469</ARG_OF_PERICENTER><MEAN_ANOMALY>267.6884</MEAN_ANOMALY></meanElements><tleParameters><EPHEMERIS_TYPE>0</EPHEMERIS_TYPE><CLASSIFICATION_TYPE>U</CLASSIFICATION_TYPE><NORAD_CAT_ID>54643</NORAD_CAT_ID><ELEMENT_SET_NO>999</ELEMENT_SET_NO><REV_AT_EPOCH>13981</REV_AT_EPOCH><BSTAR>.30553083E-4</BSTAR><MEAN_MOTION_DOT>.26E-6</MEAN_MOTION_DOT><MEAN_MOTION_DDOT>0</MEAN_MOTION_DDOT></tleParameters></data></segment></body></omm>
<omm id="CCSDS_OMM_VERS" version="2.0">
<header><CREATION_DATE/><ORIGINATOR/></header><body><segment><metadata><OBJECT_NAME>ONEWEB-0539</OBJECT_NAME><OBJECT_ID>2022-166C</OBJECT_ID><CENTER_NAME>EARTH</CENTER_NAME><REF_FRAME>TEME</REF_FRAME><TIME_SYSTEM>UTC</TIME_SYSTEM><MEAN_ELEMENT_THEORY>SGP4</MEAN_ELEMENT_THEORY></metadata><data><meanElements><EPOCH>2025-10-19T22:54:33.977088</EPOCH><MEAN_MOTION>13.21723071</MEAN_MOTION><ECCENTRICITY>.00015964</ECCENTRICITY><INCLINATION>87.9164</INCLINATION><RA_OF_ASC_NODE>291.9025</RA_OF_ASC_NODE><ARG_OF_PERICENTER>91.2241</ARG_OF_PERICENTER><MEAN_ANOMALY>268.9076</MEAN_ANOMALY></meanElements><tleParameters><EPHEMERIS_TYPE>0</EPHEMERIS_TYPE><CLASSIFICATION_TYPE>U</CLASSIFICATION_TYPE><NORAD_CAT_ID>54644</NORAD_CAT_ID><ELEMENT_SET_NO>999</ELEMENT_SET_NO><REV_AT_EPOCH>13980</REV_AT_EPOCH><BSTAR>.33298164E-3</BSTAR><MEAN_MOTION_DOT>.15E-5</MEAN_MOTION_DOT><MEAN_MOTION_DDOT>0</MEAN_MOTION_DDOT></tleParameters></data></segment></body></omm>
<omm id="CCSDS_OMM_VERS" version="2.0">
<header><CREATION_DATE/><ORIGINATOR/></header><body><segment><metadata><OBJECT_NAME>ONEWEB-0540</OBJECT_NAME><OBJECT_ID>2022-166D</OBJECT_ID><CENTER_NAME>EARTH</CENTER_NAME><REF_FRAME>TEME</REF_FRAME><TIME_SYSTEM>UTC</TIME_SYSTEM><MEAN_ELEMENT_THEORY>SGP4</MEAN_ELEMENT_THEORY></metadata><data><meanElements><EPOCH>2025-10-19T23:04:08.782464</EPOCH><MEAN_MOTION>13.21697165</MEAN_MOTION><ECCENTRICITY>.00016294</ECCENTRICITY><INCLINATION>87.9166</INCLINATION><RA_OF_ASC_NODE>291.9395</RA_OF_ASC_NODE><ARG_OF_PERICENTER>89.7714</ARG_OF_PERICENTER><MEAN_ANOMALY>270.3607</MEAN_ANOMALY></meanElements><tleParameters><EPHEMERIS_TYPE>0</EPHEMERIS_TYPE><CLASSIFICATION_TYPE>U</CLASSIFICATION_TYPE><NORAD_CAT_ID>54645</NORAD_CAT_ID><ELEMENT_SET_NO>999</ELEMENT_SET_NO><REV_AT_EPOCH>13979</REV_AT_EPOCH><BSTAR>-.43917156E-3</BSTAR><MEAN_MOTION_DOT>-.168E-5</MEAN_MOTION_DOT><MEAN_MOTION_DDOT>0</MEAN_MOTION_DDOT></tleParameters></data></segment></body></omm>
<omm id="CCSDS_OMM_VERS" version="2.0">
<header><CREATION_DATE/><ORIGINATOR/></header><body><segment><metadata><OBJECT_NAME>ONEWEB-0542</OBJECT_NAME><OBJECT_ID>2022-166E</OBJECT_ID><CENTER_NAME>EARTH</CENTER_NAME><REF_FRAME>TEME</REF_FRAME><TIME_SYSTEM>UTC</TIME_SYSTEM><MEAN_ELEMENT_THEORY>SGP4</MEAN_ELEMENT_THEORY></metadata><data><meanElements><EPOCH>2025-10-19T23:08:41.401248</EPOCH><MEAN_MOTION>13.21689159</MEAN_MOTION><ECCENTRICITY>.00015091</ECCENTRICITY><INCLINATION>87.9164</INCLINATION><RA_OF_ASC_NODE>291.8983</RA_OF_ASC_NODE><ARG_OF_PERICENTER>83.5113</ARG_OF_PERICENTER><MEAN_ANOMALY>276.6193</MEAN_ANOMALY></meanElements><tleParameters><EPHEMERIS_TYPE>0</EPHEMERIS_TYPE><CLASSIFICATION_TYPE>U</CLASSIFICATION_TYPE><NORAD_CAT_ID>54646</NORAD_CAT_ID><ELEMENT_SET_NO>999</ELEMENT_SET_NO><REV_AT_EPOCH>13980</REV_AT_EPOCH><BSTAR>.24643234E-3</BSTAR><MEAN_MOTION_DOT>.115E-5</MEAN_MOTION_DOT><MEAN_MOTION_DDOT>0</MEAN_MOTION_DDOT></tleParameters></data></segment></body></omm>
<omm id="CCSDS_OMM_VERS" version="2.0">
<header><CREATION_DATE/><ORIGINATOR/></header><body><segment><metadata><OBJECT_NAME>ONEWEB-0545</OBJECT_NAME><OBJECT_ID>2022-166F</OBJECT_ID><CENTER_NAME>EARTH</CENTER_NAME><REF_FRAME>TEME</REF_FRAME><TIME_SYSTEM>UTC</TIME_SYSTEM><MEAN_ELEMENT_THEORY>SGP4</MEAN_ELEMENT_THEORY></metadata><data><meanElements><EPOCH>2025-10-19T22:19:15.970080</EPOCH><MEAN_MOTION>13.21812528</MEAN_MOTION><ECCENTRICITY>.00013959</ECCENTRICITY><INCLINATION>87.9167</INCLINATION><RA_OF_ASC_NODE>291.9242</RA_OF_ASC_NODE><ARG_OF_PERICENTER>87.4058</ARG_OF_PERICENTER><MEAN_ANOMALY>272.7236</MEAN_ANOMALY></meanElements><tleParameters><EPHEMERIS_TYPE>0</EPHEMERIS_TYPE><CLASSIFICATION_TYPE>U</CLASSIFICATION_TYPE><NORAD_CAT_ID>54647</NORAD_CAT_ID><ELEMENT_SET_NO>999</ELEMENT_SET_NO><REV_AT_EPOCH>13976</REV_AT_EPOCH><BSTAR>.74041104E-4</BSTAR><MEAN_MOTION_DOT>.44E-6</MEAN_MOTION_DOT><MEAN_MOTION_DDOT>0</MEAN_MOTION_DDOT></tleParameters></data></segment></body></omm>
<omm id="CCSDS_OMM_VERS" version="2.0">
<header><CREATION_DATE/><ORIGINATOR/></header><body><segment><metadata><OBJECT_NAME>ONEWEB-0580</OBJECT_NAME><OBJECT_ID>2022-166G</OBJECT_ID><CENTER_NAME>EARTH</CENTER_NAME><REF_FRAME>TEME</REF_FRAME><TIME_SYSTEM>UTC</TIME_SYSTEM><MEAN_ELEMENT_THEORY>SGP4</MEAN_ELEMENT_THEORY></metadata><data><meanElements><EPOCH>2025-10-19T23:30:14.899968</EPOCH><MEAN_MOTION>13.21772447</MEAN_MOTION><ECCENTRICITY>.00015902</ECCENTRICITY><INCLINATION>87.9166</INCLINATION><RA_OF_ASC_NODE>291.9130</RA_OF_ASC_NODE><ARG_OF_PERICENTER>81.0233</ARG_OF_PERICENTER><MEAN_ANOMALY>279.1081</MEAN_ANOMALY></meanElements><tleParameters><EPHEMERIS_TYPE>0</EPHEMERIS_TYPE><CLASSIFICATION_TYPE>U</CLASSIFICATION_TYPE><NORAD_CAT_ID>54648</NORAD_CAT_ID><ELEMENT_SET_NO>999</ELEMENT_SET_NO><REV_AT_EPOCH>13981</REV_AT_EPOCH><BSTAR>.13900655E-3</BSTAR><MEAN_MOTION_DOT>.7E-6</MEAN_MOTION_DOT><MEAN_MOTION_DDOT>0</MEAN_MOTION_DDOT></tleParameters></data></segment></body></omm>
<omm id="CCSDS_OMM_VERS" version="2.0">
<header><CREATION_DATE/><ORIGINATOR/></header><body><segment><metadata><OBJECT_NAME>ONEWEB-0582</OBJECT_NAME><OBJECT_ID>2022-166H</OBJECT_ID><CENTER_NAME>EARTH</CENTER_NAME><REF_FRAME>TEME</REF_FRAME><TIME_SYSTEM>UTC</TIME_SYSTEM><MEAN_ELEMENT_THEORY>SGP4</MEAN_ELEMENT_THEORY></metadata><data><meanElements><EPOCH>2025-10-19T22:42:48.279168</EPOCH><MEAN_MOTION>13.21752383</MEAN_MOTION><ECCENTRICITY>.00015069</ECCENTRICITY><INCLINATION>87.9165</INCLINATION><RA_OF_ASC_NODE>291.9126</RA_OF_ASC_NODE><ARG_OF_PERICENTER>77.8598</ARG_OF_PERICENTER><MEAN_ANOMALY>282.2705</MEAN_ANOMALY></meanElements><tleParameters><EPHEMERIS_TYPE>0</EPHEMERIS_TYPE><CLASSIFICATION_TYPE>U</CLASSIFICATION_TYPE><NORAD_CAT_ID>54649</NORAD_CAT_ID><ELEMENT_SET_NO>999</ELEMENT_SET_NO><REV_AT_EPOCH>13978</REV_AT_EPOCH><BSTAR>.30925589E-3</BSTAR><MEAN_MOTION_DOT>.141E-5</MEAN_MOTION_DOT><MEAN_MOTION_DDOT>0</MEAN_MOTION_DDOT></tleParameters></data></segment></body></omm>
<omm id="CCSDS_OMM_VERS" version="2.0">
<header><CREATION_DATE/><ORIGINATOR/></header><body><segment><metadata><OBJECT_NAME>ONEWEB-0583</OBJECT_NAME><OBJECT_ID>2022-166J</OBJECT_ID><CENTER_NAME>EARTH</CENTER_NAME><REF_FRAME>TEME</REF_FRAME><TIME_SYSTEM>UTC</TIME_SYSTEM><MEAN_ELEMENT_THEORY>SGP4</MEAN_ELEMENT_THEORY></metadata><data><meanElements><EPOCH>2025-10-19T22:59:15.456192</EPOCH><MEAN_MOTION>13.21709718</MEAN_MOTION><ECCENTRICITY>.00017413</ECCENTRICITY><INCLINATION>87.9164</INCLINATION><RA_OF_ASC_NODE>291.9360</RA_OF_ASC_NODE><ARG_OF_PERICENTER>89.6761</ARG_OF_PERICENTER><MEAN_ANOMALY>270.4573</MEAN_ANOMALY></meanElements><tleParameters><EPHEMERIS_TYPE>0</EPHEMERIS_TYPE><CLASSIFICATION_TYPE>U</CLASSIFICATION_TYPE><NORAD_CAT_ID>54650</NORAD_CAT_ID><ELEMENT_SET_NO>999</ELEMENT_SET_NO><REV_AT_EPOCH>13979</REV_AT_EPOCH><BSTAR>.28200882E-3</BSTAR><MEAN_MOTION_DOT>.129E-5</MEAN_MOTION_DOT><MEAN_MOTION_DDOT>0</MEAN_MOTION_DDOT></tleParameters></data></segment></body></omm>

</ndm>
